OBJECT_NAME,OBJECT_ID,EPOCH,MEAN_MOTION,ECCENTRICITY,INCLINATION,RA_OF_ASC_NODE,ARG_OF_PERICENTER,MEAN_ANOMALY,EPHEMERIS_TYPE,CLASSIFICATION_TYPE,NORAD_CAT_ID,ELEMENT_SET_NO,REV_AT_EPOCH,BSTAR,MEAN_MOTION_DOT,MEAN_MOTION_DDOT
STARLINK-37376,2026-123AB,2026-06-15T12:00:02.000160,15.82802514,.0001013,53.1566,249.6282,49.4112,94.8037,0,U,69378,999,302,-.11736E-1,-.2167293E-1,0
STARLINK-37383,2026-123AC,2026-06-15T12:00:02.000160,15.83387926,.000144,53.1554,249.5575,73.7346,104.1102,0,U,69379,999,302,-.10929E-1,-.2089771E-1,0
STARLINK-37411,2026-123AD,2026-06-15T12:00:02.000160,15.82639088,.0001153,53.1561,249.6131,59.3811,91.7815,0,U,69380,999,302,-.10881E-1,-.201859E-1,0
STARLINK-37427,2026-123AE,2026-06-15T12:00:02.000160,15.83678618,.0001169,53.1556,249.5688,81.6072,91.0291,0,U,69381,999,293,-.10301E-1,-.2009974E-1,0
QIANFAN-165,2026-124A,2026-06-15T06:41:25.734912,14.18139656,.0002574,88.9992,2.2544,138.4177,221.7208,0,U,69382,999,154,.30714E-4,.77E-6,0
QIANFAN-166,2026-124B,2026-06-15T04:56:03.687936,14.19661326,.0001915,89.0004,2.2626,119.0481,241.0901,0,U,69383,999,153,.31036E-4,.8E-6,0
QIANFAN-167,2026-124C,2026-06-15T01:32:57.221088,14.18222502,.0002968,89.0038,2.2748,191.3606,168.7516,0,U,69384,999,151,.3147E-4,.79E-6,0
QIANFAN-168,2026-124D,2026-06-15T06:33:59.116896,14.20448766,.000245,88.9984,2.2556,140.5561,219.5808,0,U,69385,999,154,-.1604E-3,-.329E-5,0
QIANFAN-169,2026-124E,2026-06-15T09:54:47.155392,14.20977804,.0003144,88.9984,2.2389,155.5146,204.6194,0,U,69386,999,156,.30388E-4,.8E-6,0
QIANFAN-170,2026-124F,2026-06-15T13:15:22.949280,14.21113817,.0002534,88.9983,2.2229,128.7684,231.3733,0,U,69387,999,158,.29518E-4,.79E-6,0
QIANFAN-171,2026-124G,2026-06-15T01:23:27.877920,14.22005936,.0001136,88.9986,2.2784,166.2238,193.8984,0,U,69388,999,151,.31489E-4,.84E-6,0
QIANFAN-172,2026-124H,2026-06-15T13:14:11.581152,14.21599309,.0001719,88.9982,2.2222,154.4272,205.7004,0,U,69389,999,158,.29532E-4,.79E-6,0
QIANFAN-173,2026-124J,2026-06-15T01:22:31.239264,14.22322535,.0001592,88.9983,2.2841,123.9010,236.2333,0,U,69390,999,151,.31527E-4,.85E-6,0
QIANFAN-174,2026-124K,2026-06-14T23:39:12.843648,14.24080052,.0002259,88.9845,2.3165,150.8334,209.2985,0,U,69391,999,150,.32614E-4,.9E-6,0
QIANFAN-175,2026-124L,2026-06-15T01:20:33.889920,14.24392474,.000263,88.9963,2.2752,177.7198,182.4007,0,U,69392,999,151,.32107E-4,.89E-6,0
QIANFAN-176,2026-124M,2026-06-15T06:22:45.500160,14.25423597,.0001864,88.9982,2.2554,187.2565,172.8601,0,U,69393,999,154,.31692E-4,.89E-6,0
QIANFAN-177,2026-124N,2026-06-15T09:44:04.866432,14.25688492,.0003032,88.9981,2.2376,158.8133,201.3186,0,U,69394,999,156,.10253E-4,.39E-6,0
QIANFAN-178,2026-124P,2026-06-15T06:22:14.459232,14.25436446,.0003325,88.9956,2.2494,163.3318,196.7985,0,U,69395,999,154,.22045E-4,.67E-6,0
QIANFAN-179,2026-124Q,2026-06-15T13:05:37.034592,14.25728614,.0002739,88.9982,2.2213,166.7103,193.4163,0,U,69396,999,158,.31589E-4,.9E-6,0
QIANFAN-180,2026-124R,2026-06-14T00:01:53.851872,14.26489166,.00023412,88.9984,2.3989,170.3819,189.7420,0,U,69397,999,136,.3682278E-4,.103E-5,0
QIANFAN-181,2026-124S,2026-06-14T03:36:53.227584,14.21115081,.00021189,88.9983,2.3842,140.0514,220.0833,0,U,69398,999,138,.36214652E-4,.93E-6,0
QIANFAN-182,2026-124T,2026-06-13T19:02:53.132928,14.24123720,.0003044,88.9961,2.4186,159.9795,200.1517,0,U,69399,999,133,.37156E-4,.1E-5,0
DTC TEST OBJECT A,2026-128A,2026-06-15T02:41:40.318080,15.55747781,.00083014,54.9943,314.6138,281.0826,78.9276,0,U,69472,999,90,.3481799E-3,.24012E-3,0
DTC TEST OBJECT B,2026-128B,2026-06-15T13:27:34.803072,15.56199899,.0008381,55.0037,312.5325,283.5338,76.4764,0,U,69473,999,96,.35892E-3,.25195E-3,0
TJS-25,2026-129A,2026-06-11T11:34:53.014656,1.72502163,.7751889,16.5302,30.5351,199.9639,91.9387,0,U,69474,999,7,.19774E-2,.7407E-4,0
2026-132A,2026-132A,2026-06-15T10:04:13.801152,14.99042867,.0012337,97.6913,230.1185,277.6958,82.2864,0,U,69502,999,51,.47939E-4,.523E-5,0
2026-132B,2026-132B,2026-06-15T10:03:56.089152,14.99133636,.0012254,97.6944,230.1202,279.8965,80.0874,0,U,69503,999,51,.27921E-4,.28E-5,0
BRO-22,2026-132C,2026-06-15T10:01:55.332192,14.99758159,.0013775,97.6883,230.1175,291.4315,68.5438,0,U,69504,999,51,.94663E-4,.1112E-4,0
2026-132D,2026-132D,2026-06-15T03:33:56.922336,15.01279146,.0012278,97.6841,229.8510,304.7706,55.2361,0,U,69505,999,47,.11258E-3,.1389E-4,0
2026-132E,2026-132E,2026-06-13T22:59:45.049920,14.93464297,.00028233,97.6694,228.6931,327.8572,32.2476,0,U,69506,999,29,.19336817E-3,.1978E-4,0
